NORAD_CAT_ID,OBJECT_NAME,OBJECT_TYPE,EPOCH,MEAN_MOTION,ECCENTRICITY,INCLINATION,RA_OF_ASC_NODE,ARG_OF_PERICENTER,MEAN_ANOMALY,BSTAR,MEAN_MOTION_DOT,MEAN_MOTION_DDOT,TLE_LINE0,TLE_LINE1,TLE_LINE2,SEMIMAJOR_AXIS,PERIOD,APOGEE,PERIGEE,DECAYED
53407.0,STARLINK-4537,PAYLOAD,2024-08-03 04:50:34,15.08833244,0.0001447,53.2165,203.7348,95.588,264.5277,1.9322e-05,2e-07,0.0,0 STARLINK-4537,1 53407U 22097V   24216.20178701  .00000020  00000-0  19322-4 0  9993,2 53407  53.2165 203.7348 0001447  95.5880 264.5277 15.08833244110217,6917.901,95.438,540.767,538.765,0.0
53407.0,STARLINK-4537,PAYLOAD,2024-08-03 06:25:57,15.08834729,0.0001437,53.2162,203.4377,95.9794,264.1362,3.0622e-05,1.99e-06,0.0,0 STARLINK-4537,1 53407U 22097V   24216.26802592  .00000199  00000-0  30622-4 0  9994,2 53407  53.2162 203.4377 0001437  95.9794 264.1362 15.08834729110715,6917.897,95.438,540.756,538.767,0.0
53407.0,STARLINK-4537,PAYLOAD,2024-08-04 04:41:21,15.08840647,0.0001438,53.2162,199.2746,95.1302,264.9854,6.3981e-05,7.3e-06,0.0,0 STARLINK-4537,1 53407U 22097V   24217.19538368  .00000730  00000-0  63981-4 0  9999,2 53407  53.2162 199.2746 0001438  95.1302 264.9854 15.08840647110366,6917.878,95.438,540.738,538.749,0.0
53407.0,STARLINK-4537,PAYLOAD,2024-08-04 06:16:44,15.08842926,0.0001432,53.2163,198.9773,94.6672,265.4483,8.1854e-05,1.015e-05,0.0,0 STARLINK-4537,1 53407U 22097V   24217.26162173  .00001015  00000-0  81854-4 0  9990,2 53407  53.2163 198.9773 0001432  94.6672 265.4483 15.08842926110862,6917.871,95.437,540.727,538.746,0.0
53407.0,STARLINK-4537,PAYLOAD,2024-08-04 22:10:35,15.08834819,0.0001088,53.2162,196.004,86.336,273.7756,0.00015379,2.16e-05,0.0,0 STARLINK-4537,1 53407U 22097V   24217.92402382  .00002160  00000-0  15379-3 0  9992,2 53407  53.2162 196.0040 0001088  86.3360 273.7756 15.08834819110964,6917.896,95.438,540.514,539.009,0.0
53407.0,STARLINK-4537,PAYLOAD,2024-08-05 06:07:31,15.08835412,0.0001454,53.2162,194.5171,88.3845,271.7314,0.00016107,2.276e-05,0.0,0 STARLINK-4537,1 53407U 22097V   24218.25522516  .00002276  00000-0  16107-3 0  9999,2 53407  53.2162 194.5171 0001454  88.3845 271.7314 15.08835412110529,6917.894,95.438,540.765,538.754,0.0
53407.0,STARLINK-4537,PAYLOAD,2024-08-05 15:39:50,15.08834834,0.0001441,53.2159,192.7321,88.1085,272.0072,2.7964e-06,-2.43e-06,0.0,0 STARLINK-4537,1 53407U 22097V   24218.65267015 -.00000243  00000-0  27964-5 0  9991,2 53407  53.2159 192.7321 0001441  88.1085 272.0072 15.08834834111075,6917.896,95.438,540.758,538.764,0.0
53407.0,STARLINK-4537,PAYLOAD,2024-08-06 04:22:56,15.08830345,0.0001418,53.2152,190.3485,99.007,261.1083,-0.00010028,-1.883e-05,0.0,0 STARLINK-4537,1 53407U 22097V   24219.18259882 -.00001883  00000-0 -10028-3 0  9996,2 53407  53.2152 190.3485 0001418  99.0070 261.1083 15.08830345110660,6917.91,95.438,540.756,538.794,0.0
53407.0,STARLINK-4537,PAYLOAD,2024-08-06 05:58:19,15.08831293,0.0001432,53.2155,190.0517,97.7566,262.3588,-8.9474e-05,-1.711e-05,0.0,0 STARLINK-4537,1 53407U 22097V   24219.24883840 -.00001711  00000-0 -89474-4 0  9992,2 53407  53.2155 190.0517 0001432  97.7566 262.3588 15.08831293111169,6917.907,95.438,540.763,538.781,0.0
53407.0,STARLINK-4537,PAYLOAD,2024-08-06 15:30:38,15.08836803,0.0001466,53.2163,188.2701,96.577,263.5389,-2.188e-05,-6.36e-06,0.0,0 STARLINK-4537,1 53407U 22097V   24219.64627454 -.00000636  00000-0 -21880-4 0  9995,2 53407  53.2163 188.2701 0001466  96.5770 263.5389 15.08836803110739,6917.89,95.438,540.769,538.741,0.0
53407.0,STARLINK-4537,PAYLOAD,2024-08-07 04:13:42,15.08850299,0.0001444,53.2157,185.8883,110.2314,249.8834,5.7067e-05,6.21e-06,0.0,0 STARLINK-4537,1 53407U 22097V   24220.17618284  .00000621  00000-0  57067-4 0  9994,2 53407  53.2157 185.8883 0001444 110.2314 249.8834 15.08850299110816,6917.849,95.437,540.713,538.715,0.0
53407.0,STARLINK-4537,PAYLOAD,2024-08-08 04:04:29,15.08843712,0.0001311,53.2153,181.4312,97.9731,262.141,0.00013924,1.929e-05,0.0,0 STARLINK-4537,1 53407U 22097V   24221.16978582  .00001929  00000-0  13924-3 0  9999,2 53407  53.2153 181.4312 0001311  97.9731 262.1410 15.08843712111459,6917.869,95.437,540.641,538.827,0.0
53407.0,STARLINK-4537,PAYLOAD,2024-08-09 07:06:02,15.08851939,0.0001656,53.2162,176.375,65.7811,294.3354,6.4462e-05,7.38e-06,0.0,0 STARLINK-4537,1 53407U 22097V   24222.29586370  .00000738  00000-0  64462-4 0  9995,2 53407  53.2162 176.3750 0001656  65.7811 294.3354 15.08851939111131,6917.844,95.437,540.854,538.563,0.0
53407.0,STARLINK-4537,PAYLOAD,2024-08-09 13:27:36,15.08832934,0.0001647,53.2159,175.188,84.4235,275.6945,-0.00012309,-2.246e-05,0.0,0 STARLINK-4537,1 53407U 22097V   24222.56084004 -.00002246  00000-0 -12309-3 0  9992,2 53407  53.2159 175.1880 0001647  84.4235 275.6945 15.08832934111666,6917.902,95.438,540.906,538.628,0.0
53407.0,STARLINK-4537,PAYLOAD,2024-08-09 21:24:32,15.08827121,0.0001182,53.2163,173.7005,92.5526,267.5601,-1.5983e-05,-5.42e-06,0.0,0 STARLINK-4537,1 53407U 22097V   24222.89203887 -.00000542  00000-0 -15983-4 0  9999,2 53407  53.2163 173.7005 0001182  92.5526 267.5601 15.08827121111224,6917.92,95.438,540.602,538.967,0.0
53407.0,STARLINK-4537,PAYLOAD,2024-08-10 03:46:03,15.08839752,0.0001649,53.2178,172.5132,110.0585,250.0585,8.2486e-05,1.025e-05,0.0,0 STARLINK-4537,1 53407U 22097V   24223.15698855  .00001025  00000-0  82486-4 0  9999,2 53407  53.2178 172.5132 0001649 110.0585 250.0585 15.08839752111262,6917.881,95.438,540.887,538.605,0.0
53407.0,STARLINK-4537,PAYLOAD,2024-08-10 21:15:18,15.08840143,0.0001228,53.2154,169.2332,83.6194,276.4938,-1.217e-05,-4.82e-06,0.0,0 STARLINK-4537,1 53407U 22097V   24223.88563294 -.00000482  00000-0 -12170-4 0  9998,2 53407  53.2154 169.2332 0001228  83.6194 276.4938 15.08840143111377,6917.88,95.438,540.594,538.895,0.0
53407.0,STARLINK-4537,PAYLOAD,2024-08-11 13:09:09,15.08847864,0.0001413,53.2163,166.2629,71.3796,288.7349,5.8621e-05,6.45e-06,0.0,0 STARLINK-4537,1 53407U 22097V   24224.54802655  .00000645  00000-0  58621-4 0  9999,2 53407  53.2163 166.2629 0001413  71.3796 288.7349 15.08847864111471,6917.856,95.437,540.699,538.744,0.0
53407.0,STARLINK-4537,PAYLOAD,2024-08-11 19:30:42,15.08837288,0.0002414,53.2162,165.0745,80.4801,279.6463,0.00015986,2.257e-05,0.0,0 STARLINK-4537,1 53407U 22097V   24224.81299627  .00002257  00000-0  15986-3 0  9995,2 53407  53.2162 165.0745 0002414  80.4801 279.6463 15.08837288111516,6917.889,95.438,541.424,538.084,0.0
53407.0,STARLINK-4537,PAYLOAD,2024-08-12 05:03:00,15.08855862,0.0001522,53.2163,163.2874,96.2355,263.881,0.00021863,3.195e-05,0.0,0 STARLINK-4537,1 53407U 22097V   24225.21042213  .00003195  00000-0  21863-3 0  9990,2 53407  53.2163 163.2874 0001522  96.2355 263.8810 15.08855862111573,6917.832,95.437,540.75,538.644,0.0
53407.0,STARLINK-4537,PAYLOAD,2024-08-12 12:59:56,15.08853211,0.0001362,53.2163,161.804,95.7276,264.3871,0.00012373,1.682e-05,0.0,0 STARLINK-4537,1 53407U 22097V   24225.54162176  .00001682  00000-0  12373-3 0  9992,2 53407  53.2163 161.8040 0001362  95.7276 264.3871 15.08853211112110,6917.84,95.437,540.647,538.763,0.0
53407.0,STARLINK-4537,PAYLOAD,2024-08-12 19:21:28,15.08852002,0.0001465,53.2162,160.615,94.8459,265.27,0.0001757,2.51e-05,0.0,0 STARLINK-4537,1 53407U 22097V   24225.80658298  .00002510  00000-0  17570-3 0  9991,2 53407  53.2162 160.6150 0001465  94.8459 265.2700 15.08852002111662,6917.844,95.437,540.722,538.695,0.0
53407.0,STARLINK-4537,PAYLOAD,2024-08-13 04:53:49,15.08792567,0.0001397,53.2152,158.8309,86.3297,273.7855,-0.0010011,-0.00016164,0.0,0 STARLINK-4537,1 53407U 22097V   24226.20404567 -.00016164  00000-0 -10011-2 0  9998,2 53407  53.2152 158.8309 0001397  86.3297 273.7855 15.08792567111727,6918.025,95.441,540.857,538.924,0.0
53407.0,STARLINK-4537,PAYLOAD,2024-08-13 12:50:46,15.0879224,0.0001364,53.2155,157.3447,89.642,270.4728,-0.00069679,-0.00011346,0.0,0 STARLINK-4537,1 53407U 22097V   24226.53526094 -.00011346  00000-0 -69679-3 0  9996,2 53407  53.2155 157.3447 0001364  89.6420 270.4728 15.08792240112266,6918.026,95.441,540.835,538.948,0.0
53407.0,STARLINK-4537,PAYLOAD,2024-08-14 04:44:36,15.08847594,0.0001566,53.2171,154.3665,104.0504,256.0663,0.00018238,2.616e-05,0.0,0 STARLINK-4537,1 53407U 22097V   24227.19764136  .00002616  00000-0  18238-3 0  9993,2 53407  53.2171 154.3665 0001566 104.0504 256.0663 15.08847594111879,6917.857,95.437,540.806,538.639,0.0
53407.0,STARLINK-4537,PAYLOAD,2024-08-14 12:41:32,15.08839001,0.0001454,53.2159,152.8794,107.8944,252.2207,0.00035229,5.323e-05,0.0,0 STARLINK-4537,1 53407U 22097V   24227.52884806  .00005323  00000-0  35229-3 0  9994,2 53407  53.2159 152.8794 0001454 107.8944 252.2207 15.08839001111928,6917.883,95.438,540.754,538.743,0.0
53407.0,STARLINK-4537,PAYLOAD,2024-08-14 22:13:50,15.08851218,0.0001496,53.2149,151.0952,102.1669,257.949,0.00033983,5.126e-05,0.0,0 STARLINK-4537,1 53407U 22097V   24227.92628159  .00005126  00000-0  33983-3 0  9991,2 53407  53.2149 151.0952 0001496 102.1669 257.9490 15.08851218112473,6917.846,95.437,540.746,538.676,0.0
53407.0,STARLINK-4537,PAYLOAD,2024-08-15 01:24:36,15.08852623,0.0001344,53.2155,150.5025,99.0186,261.0958,0.00035414,5.355e-05,0.0,0 STARLINK-4537,1 53407U 22097V   24228.05875954  .00005355  00000-0  35414-3 0  9998,2 53407  53.2155 150.5025 0001344  99.0186 261.0958 15.08852623112000,6917.842,95.437,540.637,538.777,0.0
53407.0,STARLINK-4537,PAYLOAD,2024-08-15 22:04:37,15.08849612,0.0001325,53.2139,146.6383,93.5477,266.5666,0.00021204,3.089e-05,0.0,0 STARLINK-4537,1 53407U 22097V   24228.91988034  .00003089  00000-0  21204-3 0  9991,2 53407  53.2139 146.6383 0001325  93.5477 266.5666 15.08849612112624,6917.851,95.437,540.633,538.799,0.0
53407.0,STARLINK-4537,PAYLOAD,2024-08-16 01:15:23,15.08851854,0.0001063,53.2149,146.0455,93.3186,266.7928,0.00023007,3.377e-05,0.0,0 STARLINK-4537,1 53407U 22097V   24229.05235827  .00003377  00000-0  23007-3 0  9995,2 53407  53.2149 146.0455 0001063  93.3186 266.7928 15.08851854112155,6917.844,95.437,540.445,538.974,0.0
